{
  "type": "FeatureCollection",
  "features": [
    {
      "type": "Feature",
      "properties": {
        "norad_id": 41556,
        "name": "ZIYUAN 3-2 (ZY 3-2)",
        "group": "resource",
        "lat": 72.46526328140939,
        "lon": -104.16243931731532,
        "alt_km": 503.5931917814014,
        "timestamp": "2025-12-03T04:52:29.298759+00:00",
        "meta_object_name": "ZIYUAN 3-2 (ZY 3-2)",
        "meta_object_id": "2016-033A",
        "meta_epoch": "2025-12-02T20:31:01.880832",
        "meta_mean_motion": 15.21273018,
        "meta_eccentricity": 0.0012439,
        "meta_inclination": 97.4061,
        "meta_ra_of_asc_node": 51.1847,
        "meta_arg_of_pericenter": 287.7806,
        "meta_mean_anomaly": 72.2072,
        "meta_ephemeris_type": 0,
        "meta_classification_type": "U",
        "meta_norad_cat_id": 41556,
        "meta_element_set_no": 999,
        "meta_rev_at_epoch": 52813,
        "meta_bstar": 0.00040319,
        "meta_mean_motion_dot": 8.964e-05,
        "meta_mean_motion_ddot": 0,
        "tle_line1": "1 41556U 16033A   25336.85488288  .00008964  00000+0  40319-3 0  9990",
        "tle_line2": "2 41556  97.4061  51.1847 0012439 287.7806  72.2072 15.21273018528132"
      },
      "geometry": {
        "type": "Point",
        "coordinates": [
          -104.16243931731532,
          72.46526328140939
        ]
      }
    },
    {
      "type": "Feature",
      "properties": {
        "norad_id": 41599,
        "name": "CARTOSAT-2C",
        "group": "resource",
        "lat": 54.88557022512487,
        "lon": -134.6826879151347,
        "alt_km": 496.78380688726156,
        "timestamp": "2025-12-03T04:52:29.298769+00:00",
        "meta_object_name": "CARTOSAT-2C",
        "meta_object_id": "2016-040A",
        "meta_epoch": "2025-12-02T20:25:33.159072",
        "meta_mean_motion": 15.19135003,
        "meta_eccentricity": 0.0010949,
        "meta_inclination": 97.4781,
        "meta_ra_of_asc_node": 34.2028,
        "meta_arg_of_pericenter": 95.0566,
        "meta_mean_anomaly": 265.1918,
        "meta_ephemeris_type": 0,
        "meta_classification_type": "U",
        "meta_norad_cat_id": 41599,
        "meta_element_set_no": 999,
        "meta_rev_at_epoch": 52390,
        "meta_bstar": 3.0521e-05,
        "meta_mean_motion_dot": 5.73e-06,
        "meta_mean_motion_ddot": 0,
        "tle_line1": "1 41599U 16040A   25336.85107823  .00000573  00000+0  30521-4 0  9991",
        "tle_line2": "2 41599  97.4781  34.2028 0010949  95.0566 265.1918 15.19135003523908"
      },
      "geometry": {
        "type": "Point",
        "coordinates": [
          -134.6826879151347,
          54.88557022512487
        ]
      }
    },
    {
      "type": "Feature",
      "properties": {
        "norad_id": 41601,
        "name": "SKYSAT-C1",
        "group": "resource",
        "lat": 82.03926619622064,
        "lon": -46.483133064243454,
        "alt_km": 459.91225718654005,
        "timestamp": "2025-12-03T04:52:29.298779+00:00",
        "meta_object_name": "SKYSAT-C1",
        "meta_object_id": "2016-040C",
        "meta_epoch": "2025-12-02T15:57:43.457184",
        "meta_mean_motion": 15.3230235,
        "meta_eccentricity": 0.0003366,
        "meta_inclination": 96.9842,
        "meta_ra_of_asc_node": 14.2488,
        "meta_arg_of_pericenter": 40.4841,
        "meta_mean_anomaly": 319.6652,
        "meta_ephemeris_type": 0,
        "meta_classification_type": "U",
        "meta_norad_cat_id": 41601,
        "meta_element_set_no": 999,
        "meta_rev_at_epoch": 52773,
        "meta_bstar": 0.00039124,
        "meta_mean_motion_dot": 0.00012138,
        "meta_mean_motion_ddot": 0,
        "tle_line1": "1 41601U 16040C   25336.66508631  .00012138  00000+0  39124-3 0  9993",
        "tle_line2": "2 41601  96.9842  14.2488 0003366  40.4841 319.6652 15.32302350527738"
      },
      "geometry": {
        "type": "Point",
        "coordinates": [
          -46.483133064243454,
          82.03926619622064
        ]
      }
    },
    {
      "type": "Feature",
      "properties": {
        "norad_id": 41603,
        "name": "LAPAN-A3",
        "group": "resource",
        "lat": -79.82759132521277,
        "lon": 110.77345117778925,
        "alt_km": 480.9808992577464,
        "timestamp": "2025-12-03T04:52:29.298790+00:00",
        "meta_object_name": "LAPAN-A3",
        "meta_object_id": "2016-040E",
        "meta_epoch": "2025-12-02T21:27:27.896832",
        "meta_mean_motion": 15.314291,
        "meta_eccentricity": 0.0010906,
        "meta_inclination": 97.1423,
        "meta_ra_of_asc_node": 334.8101,
        "meta_arg_of_pericenter": 9.9936,
        "meta_mean_anomaly": 350.1521,
        "meta_ephemeris_type": 0,
        "meta_classification_type": "U",
        "meta_norad_cat_id": 41603,
        "meta_element_set_no": 999,
        "meta_rev_at_epoch": 52475,
        "meta_bstar": 0.00017372,
        "meta_mean_motion_dot": 5.207e-05,
        "meta_mean_motion_ddot": 0,
        "tle_line1": "1 41603U 16040E   25336.89407288  .00005207  00000+0  17372-3 0  9996",
        "tle_line2": "2 41603  97.1423 334.8101 0010906   9.9936 350.1521 15.31429100524750"
      },
      "geometry": {
        "type": "Point",
        "coordinates": [
          110.77345117778925,
          -79.82759132521277
        ]
      }
    },
    {
      "type": "Feature",
      "properties": {
        "norad_id": 41604,
        "name": "BIROS",
        "group": "resource",
        "lat": -41.29610340924963,
        "lon": 14.541903591288026,
        "alt_km": 322.1817720700292,
        "timestamp": "2025-12-03T04:52:29.298800+00:00",
        "meta_object_name": "BIROS",
        "meta_object_id": "2016-040F",
        "meta_epoch": "2025-12-02T15:25:09.678432",
        "meta_mean_motion": 15.85610481,
        "meta_eccentricity": 0.00025415,
        "meta_inclination": 97.0711,
        "meta_ra_of_asc_node": 7.7018,
        "meta_arg_of_pericenter": 175.5608,
        "meta_mean_anomaly": 184.5687,
        "meta_ephemeris_type": 0,
        "meta_classification_type": "U",
        "meta_norad_cat_id": 41604,
        "meta_element_set_no": 999,
        "meta_rev_at_epoch": 52712,
        "meta_bstar": 0.00068477977,
        "meta_mean_motion_dot": 0.00167147,
        "meta_mean_motion_ddot": 0,
        "tle_line1": "1 41604U 16040F   25336.64247313  .00167147  00000+0  68478-3 0  9996",
        "tle_line2": "2 41604  97.0711   7.7018 0002541 175.5608 184.5687 15.85610481527124"
      },
      "geometry": {
        "type": "Point",
        "coordinates": [
          14.541903591288026,
          -41.29610340924963
        ]
      }
    },
    {
      "type": "Feature",
      "properties": {
        "norad_id": 41727,
        "name": "GAOFEN-3",
        "group": "resource",
        "lat": -39.48889375444393,
        "lon": 155.93780508780034,
        "alt_km": 758.6257058396131,
        "timestamp": "2025-12-03T04:52:29.298810+00:00",
        "meta_object_name": "GAOFEN-3",
        "meta_object_id": "2016-049A",
        "meta_epoch": "2025-12-02T21:11:52.975392",
        "meta_mean_motion": 14.42209756,
        "meta_eccentricity": 0.0001597,
        "meta_inclination": 98.4041,
        "meta_ra_of_asc_node": 342.6199,
        "meta_arg_of_pericenter": 74.0772,
        "meta_mean_anomaly": 286.0593,
        "meta_ephemeris_type": 0,
        "meta_classification_type": "U",
        "meta_norad_cat_id": 41727,
        "meta_element_set_no": 999,
        "meta_rev_at_epoch": 49035,
        "meta_bstar": 5.1531e-05,
        "meta_mean_motion_dot": 1.26e-06,
        "meta_mean_motion_ddot": 0,
        "tle_line1": "1 41727U 16049A   25336.88325203  .00000126  00000+0  51531-4 0  9998",
        "tle_line2": "2 41727  98.4041 342.6199 0001597  74.0772 286.0593 14.42209756490356"
      },
      "geometry": {
        "type": "Point",
        "coordinates": [
          155.93780508780034,
          -39.48889375444393
        ]
      }
    },
    {
      "type": "Feature",
      "properties": {
        "norad_id": 41771,
        "name": "SKYSAT-C4",
        "group": "resource",
        "lat": 52.18634570976265,
        "lon": -6.170711001553356,
        "alt_km": 435.6807824692796,
        "timestamp": "2025-12-03T04:52:29.298820+00:00",
        "meta_object_name": "SKYSAT-C4",
        "meta_object_id": "2016-058B",
        "meta_epoch": "2025-12-02T19:18:03.995424",
        "meta_mean_motion": 15.41812114,
        "meta_eccentricity": 7e-05,
        "meta_inclination": 96.9387,
        "meta_ra_of_asc_node": 2.4785,
        "meta_arg_of_pericenter": 113.2811,
        "meta_mean_anomaly": 246.8511,
        "meta_ephemeris_type": 0,
        "meta_classification_type": "U",
        "meta_norad_cat_id": 41771,
        "meta_element_set_no": 999,
        "meta_rev_at_epoch": 51514,
        "meta_bstar": 0.00044041,
        "meta_mean_motion_dot": 0.00018597,
        "meta_mean_motion_ddot": 0,
        "tle_line1": "1 41771U 16058B   25336.80421291  .00018597  00000+0  44041-3 0  9991",
        "tle_line2": "2 41771  96.9387   2.4785 0000700 113.2811 246.8511 15.41812114515145"
      },
      "geometry": {
        "type": "Point",
        "coordinates": [
          -6.170711001553356,
          52.18634570976265
        ]
      }
    }
  ]
}